[{"OBJECT_NAME":"TOMORROW-S2","OBJECT_ID":"2024-149T","EPOCH":"2026-03-09T18:02:42.746496","MEAN_MOTION":15.30674935,"ECCENTRICITY":0.0001648,"INCLINATION":97.3857,"RA_OF_ASC_NODE":150.0385,"ARG_OF_PERICENTER":234.3331,"MEAN_ANOMALY":125.7757,"EPHEMERIS_TYPE":0,"CLASSIFICATION_TYPE":"U","NORAD_CAT_ID":60485,"ELEMENT_SET_NO":999,"REV_AT_EPOCH":8686,"BSTAR":0.00027683033,"MEAN_MOTION_DOT":8.133e-5,"MEAN_MOTION_DDOT":0},{"OBJECT_NAME":"STARLINK-35088","OBJECT_ID":"2025-189X","EPOCH":"2026-03-09T16:39:07.666272","MEAN_MOTION":15.30195891,"ECCENTRICITY":0.00012529,"INCLINATION":53.1599,"RA_OF_ASC_NODE":206.9909,"ARG_OF_PERICENTER":52.8689,"MEAN_ANOMALY":307.2426,"EPHEMERIS_TYPE":0,"CLASSIFICATION_TYPE":"U","NORAD_CAT_ID":65344,"ELEMENT_SET_NO":999,"REV_AT_EPOCH":3111,"BSTAR":0.0013369662,"MEAN_MOTION_DOT":0.00039443,"MEAN_MOTION_DDOT":0}]
