TOMORROW-S2             
1 60485U 24149T   26068.75188364  .00008133  00000+0  27683-3 0  9990
2 60485  97.3857 150.0385 0001648 234.3331 125.7757 15.30674935 86869
STARLINK-35088          
1 65344U 25189X   26068.69383873  .00039443  00000+0  13370-2 0  9994
2 65344  53.1599 206.9909 0001253  52.8689 307.2426 15.30195891 31112
